OCO 2                   
1 40059U 14035A   26062.74739609  .00000729  00000+0  17190-3 0  9990
2 40059  98.2192   5.6782 0001144  91.7040 268.4290 14.57085570620696
BRITE-PL2 (HEWELIUSZ)   
1 40119U 14049B   26062.77989301  .00003666  00000+0  34734-3 0  9997
2 40119  97.8981 174.0764 0015504  99.5590 260.7382 14.94142812625704
MMS 1                   
1 40482U 15011A   26062.91670139 -.00001995  00000+0  00000+0 0  9991
2 40482  70.7180 350.2284 8422826 165.3132   0.8896  0.28063992  1337
MMS 2                   
1 40483U 15011B   26062.91670139 -.00001994  00000+0  00000+0 0  9991
2 40483  70.7187 350.2305 8423305 165.3185   0.8740  0.28070726  1331
MMS 3                   
1 40484U 15011C   26062.91670139 -.00001995  00000+0  00000+0 0  9993
2 40484  70.7206 350.2352 8422870 165.3137   0.8818  0.28063036  1331
MMS 4                   
1 40485U 15011D   26062.91670139 -.00001994  00000+0  00000+0 0  9993
2 40485  70.7191 350.2303 8422113 165.3201   0.8683  0.28070154  1332
ASTROSAT                
1 40930U 15052A   26062.26297656  .00002440  00000+0  21617-3 0  9997
2 40930   5.9956 197.6882 0008451 319.3867  40.5631 14.82276678564081
DAMPE                   
1 41173U 15078A   26062.85074491  .00001419  00000+0  50683-4 0  9991
2 41173  97.4576  67.8122 0013876  89.6340 270.6490 15.30472477568431
PISAT                   
1 41784U 16059B   26062.55766424  .00001447  00000+0  25467-3 0  9992
2 41784  97.8188  67.5655 0029051 180.1556 179.9646 14.68755523504236
HXMT (HUIYAN)           
1 42758U 17034A   26062.85342955  .00007373  00000+0  36918-3 0  9997
2 42758  43.0149  49.1173 0032304 200.1957 159.7615 15.17370185481656
FLYING LAPTOP           
1 42831U 17042G   26062.84293516  .00004407  00000+0  35328-3 0  9994
2 42831  97.4249 222.7783 0018522 114.4983 245.8175 15.00469402470659
ZHANGHENG 1-01 (CSES-1) 
1 43194U 18015C   26062.86570938  .00014220  00000+0  64424-3 0  9999
2 43194  97.6739 226.4889 0014855 266.3493  93.6043 15.20879734448635
SALSAT                  
1 46495U 20068K   26062.77970161  .00012684  00000+0  46597-3 0  9992
2 46495  97.8847  59.5668 0008731 321.6728  38.3888 15.28039347299257
IXPE                    
1 49954U 21121A   26062.75002314  .00015327  00000+0  88018-3 0  9991
2 49954   0.2315  34.3719 0007750 285.0547 302.4653 15.09112474  5654
