[{"OBJECT_NAME":"OCO 2","OBJECT_ID":"2014-035A","EPOCH":"2026-03-03T17:56:15.022176","MEAN_MOTION":14.5708557,"ECCENTRICITY":0.0001144,"INCLINATION":98.2192,"RA_OF_ASC_NODE":5.6782,"ARG_OF_PERICENTER":91.704,"MEAN_ANOMALY":268.429,"EPHEMERIS_TYPE":0,"CLASSIFICATION_TYPE":"U","NORAD_CAT_ID":40059,"ELEMENT_SET_NO":999,"REV_AT_EPOCH":62069,"BSTAR":0.0001719,"MEAN_MOTION_DOT":7.29e-6,"MEAN_MOTION_DDOT":0},{"OBJECT_NAME":"BRITE-PL2 (HEWELIUSZ)","OBJECT_ID":"2014-049B","EPOCH":"2026-03-03T18:43:02.756064","MEAN_MOTION":14.94142812,"ECCENTRICITY":0.0015504,"INCLINATION":97.8981,"RA_OF_ASC_NODE":174.0764,"ARG_OF_PERICENTER":99.559,"MEAN_ANOMALY":260.7382,"EPHEMERIS_TYPE":0,"CLASSIFICATION_TYPE":"U","NORAD_CAT_ID":40119,"ELEMENT_SET_NO":999,"REV_AT_EPOCH":62570,"BSTAR":0.00034734,"MEAN_MOTION_DOT":3.666e-5,"MEAN_MOTION_DDOT":0},{"OBJECT_NAME":"MMS 1","OBJECT_ID":"2015-011A","EPOCH":"2026-03-03T22:00:03.000096","MEAN_MOTION":0.28063992,"ECCENTRICITY":0.8422826,"INCLINATION":70.718,"RA_OF_ASC_NODE":350.2284,"ARG_OF_PERICENTER":165.3132,"MEAN_ANOMALY":0.8896,"EPHEMERIS_TYPE":0,"CLASSIFICATION_TYPE":"U","NORAD_CAT_ID":40482,"ELEMENT_SET_NO":999,"REV_AT_EPOCH":133,"BSTAR":0,"MEAN_MOTION_DOT":-1.995e-5,"MEAN_MOTION_DDOT":0},{"OBJECT_NAME":"MMS 2","OBJECT_ID":"2015-011B","EPOCH":"2026-03-03T22:00:03.000096","MEAN_MOTION":0.28070726,"ECCENTRICITY":0.8423305,"INCLINATION":70.7187,"RA_OF_ASC_NODE":350.2305,"ARG_OF_PERICENTER":165.3185,"MEAN_ANOMALY":0.874,"EPHEMERIS_TYPE":0,"CLASSIFICATION_TYPE":"U","NORAD_CAT_ID":40483,"ELEMENT_SET_NO":999,"REV_AT_EPOCH":133,"BSTAR":0,"MEAN_MOTION_DOT":-1.994e-5,"MEAN_MOTION_DDOT":0},{"OBJECT_NAME":"MMS 3","OBJECT_ID":"2015-011C","EPOCH":"2026-03-03T22:00:03.000096","MEAN_MOTION":0.28063036,"ECCENTRICITY":0.842287,"INCLINATION":70.7206,"RA_OF_ASC_NODE":350.2352,"ARG_OF_PERICENTER":165.3137,"MEAN_ANOMALY":0.8818,"EPHEMERIS_TYPE":0,"CLASSIFICATION_TYPE":"U","NORAD_CAT_ID":40484,"ELEMENT_SET_NO":999,"REV_AT_EPOCH":133,"BSTAR":0,"MEAN_MOTION_DOT":-1.995e-5,"MEAN_MOTION_DDOT":0},{"OBJECT_NAME":"MMS 4","OBJECT_ID":"2015-011D","EPOCH":"2026-03-03T22:00:03.000096","MEAN_MOTION":0.28070154,"ECCENTRICITY":0.8422113,"INCLINATION":70.7191,"RA_OF_ASC_NODE":350.2303,"ARG_OF_PERICENTER":165.3201,"MEAN_ANOMALY":0.8683,"EPHEMERIS_TYPE":0,"CLASSIFICATION_TYPE":"U","NORAD_CAT_ID":40485,"ELEMENT_SET_NO":999,"REV_AT_EPOCH":133,"BSTAR":0,"MEAN_MOTION_DOT":-1.994e-5,"MEAN_MOTION_DDOT":0},{"OBJECT_NAME":"ASTROSAT","OBJECT_ID":"2015-052A","EPOCH":"2026-03-03T06:18:41.174784","MEAN_MOTION":14.82276678,"ECCENTRICITY":0.00084515,"INCLINATION":5.9956,"RA_OF_ASC_NODE":197.6882,"ARG_OF_PERICENTER":319.3867,"MEAN_ANOMALY":40.5631,"EPHEMERIS_TYPE":0,"CLASSIFICATION_TYPE":"U","NORAD_CAT_ID":40930,"ELEMENT_SET_NO":999,"REV_AT_EPOCH":56408,"BSTAR":0.0002161656,"MEAN_MOTION_DOT":2.44e-5,"MEAN_MOTION_DDOT":0},{"OBJECT_NAME":"DAMPE","OBJECT_ID":"2015-078A","EPOCH":"2026-03-03T20:25:04.360224","MEAN_MOTION":15.30472477,"ECCENTRICITY":0.0013876,"INCLINATION":97.4576,"RA_OF_ASC_NODE":67.8122,"ARG_OF_PERICENTER":89.634,"MEAN_ANOMALY":270.649,"EPHEMERIS_TYPE":0,"CLASSIFICATION_TYPE":"U","NORAD_CAT_ID":41173,"ELEMENT_SET_NO":999,"REV_AT_EPOCH":56843,"BSTAR":5.0683e-5,"MEAN_MOTION_DOT":1.419e-5,"MEAN_MOTION_DDOT":0},{"OBJECT_NAME":"PISAT","OBJECT_ID":"2016-059B","EPOCH":"2026-03-03T13:23:02.190336","MEAN_MOTION":14.68755523,"ECCENTRICITY":0.0029051,"INCLINATION":97.8188,"RA_OF_ASC_NODE":67.5655,"ARG_OF_PERICENTER":180.1556,"MEAN_ANOMALY":179.9646,"EPHEMERIS_TYPE":0,"CLASSIFICATION_TYPE":"U","NORAD_CAT_ID":41784,"ELEMENT_SET_NO":999,"REV_AT_EPOCH":50423,"BSTAR":0.00025467,"MEAN_MOTION_DOT":1.447e-5,"MEAN_MOTION_DDOT":0},{"OBJECT_NAME":"HXMT (HUIYAN)","OBJECT_ID":"2017-034A","EPOCH":"2026-03-03T20:28:56.313120","MEAN_MOTION":15.17370185,"ECCENTRICITY":0.0032304,"INCLINATION":43.0149,"RA_OF_ASC_NODE":49.1173,"ARG_OF_PERICENTER":200.1957,"MEAN_ANOMALY":159.7615,"EPHEMERIS_TYPE":0,"CLASSIFICATION_TYPE":"U","NORAD_CAT_ID":42758,"ELEMENT_SET_NO":999,"REV_AT_EPOCH":48165,"BSTAR":0.00036918,"MEAN_MOTION_DOT":7.373e-5,"MEAN_MOTION_DDOT":0},{"OBJECT_NAME":"FLYING LAPTOP","OBJECT_ID":"2017-042G","EPOCH":"2026-03-03T20:13:49.597824","MEAN_MOTION":15.00469402,"ECCENTRICITY":0.0018522,"INCLINATION":97.4249,"RA_OF_ASC_NODE":222.7783,"ARG_OF_PERICENTER":114.4983,"MEAN_ANOMALY":245.8175,"EPHEMERIS_TYPE":0,"CLASSIFICATION_TYPE":"U","NORAD_CAT_ID":42831,"ELEMENT_SET_NO":999,"REV_AT_EPOCH":47065,"BSTAR":0.00035328,"MEAN_MOTION_DOT":4.407e-5,"MEAN_MOTION_DDOT":0},{"OBJECT_NAME":"ZHANGHENG 1-01 (CSES-1)","OBJECT_ID":"2018-015C","EPOCH":"2026-03-03T20:46:37.290432","MEAN_MOTION":15.20879734,"ECCENTRICITY":0.0014855,"INCLINATION":97.6739,"RA_OF_ASC_NODE":226.4889,"ARG_OF_PERICENTER":266.3493,"MEAN_ANOMALY":93.6043,"EPHEMERIS_TYPE":0,"CLASSIFICATION_TYPE":"U","NORAD_CAT_ID":43194,"ELEMENT_SET_NO":999,"REV_AT_EPOCH":44863,"BSTAR":0.00064424,"MEAN_MOTION_DOT":0.0001422,"MEAN_MOTION_DDOT":0},{"OBJECT_NAME":"SALSAT","OBJECT_ID":"2020-068K","EPOCH":"2026-03-03T18:42:46.219104","MEAN_MOTION":15.28039347,"ECCENTRICITY":0.0008731,"INCLINATION":97.8847,"RA_OF_ASC_NODE":59.5668,"ARG_OF_PERICENTER":321.6728,"MEAN_ANOMALY":38.3888,"EPHEMERIS_TYPE":0,"CLASSIFICATION_TYPE":"U","NORAD_CAT_ID":46495,"ELEMENT_SET_NO":999,"REV_AT_EPOCH":29925,"BSTAR":0.00046597,"MEAN_MOTION_DOT":0.00012684,"MEAN_MOTION_DDOT":0},{"OBJECT_NAME":"IXPE","OBJECT_ID":"2021-121A","EPOCH":"2026-03-03T18:00:01.999296","MEAN_MOTION":15.09112474,"ECCENTRICITY":0.000775,"INCLINATION":0.2315,"RA_OF_ASC_NODE":34.3719,"ARG_OF_PERICENTER":285.0547,"MEAN_ANOMALY":302.4653,"EPHEMERIS_TYPE":0,"CLASSIFICATION_TYPE":"U","NORAD_CAT_ID":49954,"ELEMENT_SET_NO":999,"REV_AT_EPOCH":565,"BSTAR":0.00088018,"MEAN_MOTION_DOT":0.00015327,"MEAN_MOTION_DDOT":0}]
